[{"OBJECT_NAME":"STARLINK-3547","OBJECT_ID":"2022-022AP","EPOCH":"2025-11-07T22:22:32.599200","MEAN_MOTION":15.08833537,"ECCENTRICITY":0.00015352,"INCLINATION":53.2169,"RA_OF_ASC_NODE":185.7082,"ARG_OF_PERICENTER":95.2473,"MEAN_ANOMALY":264.8694,"EPHEMERIS_TYPE":0,"CLASSIFICATION_TYPE":"U","NORAD_CAT_ID":51889,"ELEMENT_SET_NO":999,"REV_AT_EPOCH":20486,"BSTAR":-8.2372033e-5,"MEAN_MOTION_DOT":-1.598e-5,"MEAN_MOTION_DDOT":0},{"OBJECT_NAME":"STARLINK-3549","OBJECT_ID":"2022-022AR","EPOCH":"2025-11-07T22:17:14.099424","MEAN_MOTION":15.08838492,"ECCENTRICITY":0.000128,"INCLINATION":53.2145,"RA_OF_ASC_NODE":185.7241,"ARG_OF_PERICENTER":90.0148,"MEAN_ANOMALY":270.0991,"EPHEMERIS_TYPE":0,"CLASSIFICATION_TYPE":"U","NORAD_CAT_ID":51891,"ELEMENT_SET_NO":999,"REV_AT_EPOCH":20491,"BSTAR":2.2296925e-5,"MEAN_MOTION_DOT":6.7e-7,"MEAN_MOTION_DDOT":0},{"OBJECT_NAME":"STARLINK-3587","OBJECT_ID":"2022-022AS","EPOCH":"2025-11-07T22:27:50.628096","MEAN_MOTION":15.08804401,"ECCENTRICITY":0.00019706,"INCLINATION":53.2176,"RA_OF_ASC_NODE":185.6927,"ARG_OF_PERICENTER":86.792,"MEAN_ANOMALY":273.3297,"EPHEMERIS_TYPE":0,"CLASSIFICATION_TYPE":"U","NORAD_CAT_ID":51892,"ELEMENT_SET_NO":999,"REV_AT_EPOCH":20486,"BSTAR":0.00044265323,"MEAN_MOTION_DOT":6.757e-5,"MEAN_MOTION_DDOT":0},{"OBJECT_NAME":"STARLINK-3579","OBJECT_ID":"2022-022AT","EPOCH":"2025-11-08T09:14:19.773312","MEAN_MOTION":15.08847608,"ECCENTRICITY":0.0001484,"INCLINATION":53.216,"RA_OF_ASC_NODE":183.6788,"ARG_OF_PERICENTER":88.2672,"MEAN_ANOMALY":271.849,"EPHEMERIS_TYPE":0,"CLASSIFICATION_TYPE":"U","NORAD_CAT_ID":51893,"ELEMENT_SET_NO":999,"REV_AT_EPOCH":20499,"BSTAR":2.3845e-5,"MEAN_MOTION_DOT":9.2e-7,"MEAN_MOTION_DDOT":0},{"OBJECT_NAME":"STARLINK-3595","OBJECT_ID":"2022-022AU","EPOCH":"2025-11-07T22:11:56.132736","MEAN_MOTION":15.0884173,"ECCENTRICITY":0.00017505,"INCLINATION":53.214,"RA_OF_ASC_NODE":185.7422,"ARG_OF_PERICENTER":96.5318,"MEAN_ANOMALY":263.5874,"EPHEMERIS_TYPE":0,"CLASSIFICATION_TYPE":"U","NORAD_CAT_ID":51894,"ELEMENT_SET_NO":999,"REV_AT_EPOCH":20492,"BSTAR":4.5118879e-5,"MEAN_MOTION_DOT":4.3e-6,"MEAN_MOTION_DDOT":0},{"OBJECT_NAME":"STARLINK-3594","OBJECT_ID":"2022-022AV","EPOCH":"2025-11-08T09:09:02.013120","MEAN_MOTION":15.08845139,"ECCENTRICITY":0.0001448,"INCLINATION":53.2157,"RA_OF_ASC_NODE":183.6949,"ARG_OF_PERICENTER":89.477,"MEAN_ANOMALY":270.6388,"EPHEMERIS_TYPE":0,"CLASSIFICATION_TYPE":"U","NORAD_CAT_ID":51895,"ELEMENT_SET_NO":999,"REV_AT_EPOCH":20493,"BSTAR":-9.6987e-6,"MEAN_MOTION_DOT":-4.42e-6,"MEAN_MOTION_DDOT":0},{"OBJECT_NAME":"STARLINK-3593","OBJECT_ID":"2022-022AW","EPOCH":"2025-11-07T22:33:10.445472","MEAN_MOTION":15.0883293,"ECCENTRICITY":0.00016155,"INCLINATION":53.2165,"RA_OF_ASC_NODE":185.8976,"ARG_OF_PERICENTER":89.6572,"MEAN_ANOMALY":270.4606,"EPHEMERIS_TYPE":0,"CLASSIFICATION_TYPE":"U","NORAD_CAT_ID":51896,"ELEMENT_SET_NO":999,"REV_AT_EPOCH":20491,"BSTAR":-7.9809966e-5,"MEAN_MOTION_DOT":-1.558e-5,"MEAN_MOTION_DDOT":0},{"OBJECT_NAME":"STARLINK-3598","OBJECT_ID":"2022-022AX","EPOCH":"2025-11-07T23:31:25.074912","MEAN_MOTION":15.08832642,"ECCENTRICITY":0.0001463,"INCLINATION":53.2157,"RA_OF_ASC_NODE":185.4955,"ARG_OF_PERICENTER":79.9679,"MEAN_ANOMALY":280.1478,"EPHEMERIS_TYPE":0,"CLASSIFICATION_TYPE":"U","NORAD_CAT_ID":51897,"ELEMENT_SET_NO":999,"REV_AT_EPOCH":20487,"BSTAR":-0.00014554149,"MEAN_MOTION_DOT":-2.603e-5,"MEAN_MOTION_DDOT":0},{"OBJECT_NAME":"STARLINK-3597","OBJECT_ID":"2022-022AY","EPOCH":"2025-11-08T08:58:26.785632","MEAN_MOTION":15.08840083,"ECCENTRICITY":0.0001536,"INCLINATION":53.2154,"RA_OF_ASC_NODE":183.7294,"ARG_OF_PERICENTER":83.5004,"MEAN_ANOMALY":276.6163,"EPHEMERIS_TYPE":0,"CLASSIFICATION_TYPE":"U","NORAD_CAT_ID":51898,"ELEMENT_SET_NO":999,"REV_AT_EPOCH":20498,"BSTAR":2.059e-5,"MEAN_MOTION_DOT":4.0e-7,"MEAN_MOTION_DDOT":0},{"OBJECT_NAME":"STARLINK-3700","OBJECT_ID":"2022-025A","EPOCH":"2025-11-07T23:28:33.183840","MEAN_MOTION":15.06401181,"ECCENTRICITY":0.00014788,"INCLINATION":53.0546,"RA_OF_ASC_NODE":208.0077,"ARG_OF_PERICENTER":90.2467,"MEAN_ANOMALY":269.8692,"EPHEMERIS_TYPE":0,"CLASSIFICATION_TYPE":"U","NORAD_CAT_ID":51956,"ELEMENT_SET_NO":999,"REV_AT_EPOCH":20270,"BSTAR":-4.1688491e-5,"MEAN_MOTION_DOT":-9.02e-6,"MEAN_MOTION_DDOT":0},{"OBJECT_NAME":"STARLINK-3694","OBJECT_ID":"2022-025B","EPOCH":"2025-11-08T01:20:32.479872","MEAN_MOTION":15.06400087,"ECCENTRICITY":0.00016672,"INCLINATION":53.0544,"RA_OF_ASC_NODE":221.9076,"ARG_OF_PERICENTER":94.5475,"MEAN_ANOMALY":265.5704,"EPHEMERIS_TYPE":0,"CLASSIFICATION_TYPE":"U","NORAD_CAT_ID":51957,"ELEMENT_SET_NO":999,"REV_AT_EPOCH":20251,"BSTAR":-7.0814474e-5,"MEAN_MOTION_DOT":-1.336e-5,"MEAN_MOTION_DDOT":0},{"OBJECT_NAME":"STARLINK-3692","OBJECT_ID":"2022-025C","EPOCH":"2025-11-08T10:32:01.657248","MEAN_MOTION":15.06392428,"ECCENTRICITY":0.0001665,"INCLINATION":53.0539,"RA_OF_ASC_NODE":205.9453,"ARG_OF_PERICENTER":83.6697,"MEAN_ANOMALY":276.4482,"EPHEMERIS_TYPE":0,"CLASSIFICATION_TYPE":"U","NORAD_CAT_ID":51958,"ELEMENT_SET_NO":999,"REV_AT_EPOCH":20277,"BSTAR":5.2204e-5,"MEAN_MOTION_DOT":4.96e-6,"MEAN_MOTION_DDOT":0},{"OBJECT_NAME":"STARLINK-3704","OBJECT_ID":"2022-025D","EPOCH":"2025-11-08T10:59:05.172000","MEAN_MOTION":15.06400775,"ECCENTRICITY":0.0001587,"INCLINATION":53.0559,"RA_OF_ASC_NODE":220.077,"ARG_OF_PERICENTER":89.7863,"MEAN_ANOMALY":270.3308,"EPHEMERIS_TYPE":0,"CLASSIFICATION_TYPE":"U","NORAD_CAT_ID":51959,"ELEMENT_SET_NO":999,"REV_AT_EPOCH":20257,"BSTAR":-6.1745e-5,"MEAN_MOTION_DOT":-1.201e-5,"MEAN_MOTION_DDOT":0},{"OBJECT_NAME":"STARLINK-3691","OBJECT_ID":"2022-025E","EPOCH":"2025-11-08T10:48:28.562112","MEAN_MOTION":15.06394965,"ECCENTRICITY":0.000147,"INCLINATION":53.054,"RA_OF_ASC_NODE":220.1128,"ARG_OF_PERICENTER":96.4211,"MEAN_ANOMALY":263.6946,"EPHEMERIS_TYPE":0,"CLASSIFICATION_TYPE":"U","NORAD_CAT_ID":51960,"ELEMENT_SET_NO":999,"REV_AT_EPOCH":20257,"BSTAR":-2.6582e-5,"MEAN_MOTION_DOT":-6.77e-6,"MEAN_MOTION_DDOT":0},{"OBJECT_NAME":"STARLINK-3697","OBJECT_ID":"2022-025G","EPOCH":"2025-11-07T22:53:21.291360","MEAN_MOTION":15.06402696,"ECCENTRICITY":0.00017741,"INCLINATION":53.0543,"RA_OF_ASC_NODE":212.9213,"ARG_OF_PERICENTER":99.3662,"MEAN_ANOMALY":260.7528,"EPHEMERIS_TYPE":0,"CLASSIFICATION_TYPE":"U","NORAD_CAT_ID":51962,"ELEMENT_SET_NO":999,"REV_AT_EPOCH":20263,"BSTAR":0.00024511091,"MEAN_MOTION_DOT":3.371e-5,"MEAN_MOTION_DDOT":0},{"OBJECT_NAME":"STARLINK-3675","OBJECT_ID":"2022-025H","EPOCH":"2025-11-08T10:16:05.515968","MEAN_MOTION":15.06400773,"ECCENTRICITY":0.0001806,"INCLINATION":53.0557,"RA_OF_ASC_NODE":205.9349,"ARG_OF_PERICENTER":87.0414,"MEAN_ANOMALY":273.0782,"EPHEMERIS_TYPE":0,"CLASSIFICATION_TYPE":"U","NORAD_CAT_ID":51963,"ELEMENT_SET_NO":999,"REV_AT_EPOCH":20277,"BSTAR":-8.7256e-5,"MEAN_MOTION_DOT":-1.581e-5,"MEAN_MOTION_DDOT":0}]
