STARLINK-3547           
1 51889U 22022AP  25311.93232175 -.00001598  00000+0 -82372-4 0  9993
2 51889  53.2169 185.7082 0001535  95.2473 264.8694 15.08833537204866
STARLINK-3549           
1 51891U 22022AR  25311.92863541  .00000067  00000+0  22297-4 0  9990
2 51891  53.2145 185.7241 0001280  90.0148 270.0991 15.08838492204919
STARLINK-3587           
1 51892U 22022AS  25311.93600264  .00006757  00000+0  44265-3 0  9993
2 51892  53.2176 185.6927 0001970  86.7920 273.3297 15.08804401204862
STARLINK-3579           
1 51893U 22022AT  25312.38495108  .00000092  00000+0  23845-4 0  9991
2 51893  53.2160 183.6788 0001484  88.2672 271.8490 15.08847608204998
STARLINK-3595           
1 51894U 22022AU  25311.92495524  .00000430  00000+0  45119-4 0  9997
2 51894  53.2140 185.7422 0001750  96.5318 263.5874 15.08841730204927
STARLINK-3594           
1 51895U 22022AV  25312.38127330 -.00000442  00000+0 -96987-5 0  9991
2 51895  53.2157 183.6949 0001448  89.4770 270.6388 15.08845139204931
STARLINK-3593           
1 51896U 22022AW  25311.93970423 -.00001558  00000+0 -79810-4 0  9995
2 51896  53.2165 185.8976 0001615  89.6572 270.4606 15.08832930204917
STARLINK-3598           
1 51897U 22022AX  25311.98015133 -.00002603  00000+0 -14554-3 0  9994
2 51897  53.2157 185.4955 0001463  79.9679 280.1478 15.08832642204873
STARLINK-3597           
1 51898U 22022AY  25312.37392113  .00000040  00000+0  20590-4 0  9994
2 51898  53.2154 183.7294 0001536  83.5004 276.6163 15.08840083204983
STARLINK-3700           
1 51956U 22025A   25311.97816185 -.00000902  00000+0 -41688-4 0  9997
2 51956  53.0546 208.0077 0001478  90.2467 269.8692 15.06401181202703
STARLINK-3694           
1 51957U 22025B   25312.05593148 -.00001336  00000+0 -70814-4 0  9994
2 51957  53.0544 221.9076 0001667  94.5475 265.5704 15.06400087202511
STARLINK-3692           
1 51958U 22025C   25312.43890807  .00000496  00000+0  52204-4 0  9996
2 51958  53.0539 205.9453 0001665  83.6697 276.4482 15.06392428202771
STARLINK-3704           
1 51959U 22025D   25312.45769875 -.00001201  00000+0 -61745-4 0  9996
2 51959  53.0559 220.0770 0001587  89.7863 270.3308 15.06400775202572
STARLINK-3691           
1 51960U 22025E   25312.45033058 -.00000677  00000+0 -26582-4 0  9991
2 51960  53.0540 220.1128 0001470  96.4211 263.6946 15.06394965202571
STARLINK-3697           
1 51962U 22025G   25311.95371865  .00003371  00000+0  24511-3 0  9999
2 51962  53.0543 212.9213 0001774  99.3662 260.7528 15.06402696202631
STARLINK-3675           
1 51963U 22025H   25312.42784162 -.00001581  00000+0 -87256-4 0  9990
2 51963  53.0557 205.9349 0001806  87.0414 273.0782 15.06400773202772
